{
  "type": "FeatureCollection",
  "features": [
    {
      "type": "Feature",
      "properties": {
        "norad_id": 31150,
        "name": "FENGYUN 1C DEB",
        "group": "fengyun-1c-debris",
        "lat": -79.40779864872619,
        "lon": 62.580879266098755,
        "alt_km": 867.3355096904743,
        "timestamp": "2025-12-25T11:37:44.716002+00:00",
        "meta_object_name": "FENGYUN 1C DEB",
        "meta_object_id": "1999-025BHC",
        "meta_epoch": "2025-12-25T00:15:03.050208",
        "meta_mean_motion": 14.12740244,
        "meta_eccentricity": 0.0015751,
        "meta_inclination": 98.6855,
        "meta_ra_of_asc_node": 7.2947,
        "meta_arg_of_pericenter": 125.9436,
        "meta_mean_anomaly": 260.2376,
        "meta_ephemeris_type": 0,
        "meta_classification_type": "U",
        "meta_norad_cat_id": 31150,
        "meta_element_set_no": 999,
        "meta_rev_at_epoch": 96470,
        "meta_bstar": 0.00014343,
        "meta_mean_motion_dot": 2.24e-06,
        "meta_mean_motion_ddot": 0,
        "tle_line1": "1 31150U 99025BHC 25359.01045197  .00000224  00000+0  14343-3 0  9991",
        "tle_line2": "2 31150  98.6855   7.2947 0015751 125.9436 260.2376 14.12740244964702"
      },
      "geometry": {
        "type": "Point",
        "coordinates": [
          62.580879266098755,
          -79.40779864872619
        ]
      }
    },
    {
      "type": "Feature",
      "properties": {
        "norad_id": 31151,
        "name": "FENGYUN 1C DEB",
        "group": "fengyun-1c-debris",
        "lat": -40.43567433699777,
        "lon": 13.332520948020024,
        "alt_km": 776.5207902588909,
        "timestamp": "2025-12-25T11:37:44.716012+00:00",
        "meta_object_name": "FENGYUN 1C DEB",
        "meta_object_id": "1999-025BHD",
        "meta_epoch": "2025-12-22T11:24:18.125856",
        "meta_mean_motion": 14.25906921,
        "meta_eccentricity": 0.00563274,
        "meta_inclination": 99.1351,
        "meta_ra_of_asc_node": 2.3164,
        "meta_arg_of_pericenter": 357.1221,
        "meta_mean_anomaly": 2.9626,
        "meta_ephemeris_type": 0,
        "meta_classification_type": "U",
        "meta_norad_cat_id": 31151,
        "meta_element_set_no": 999,
        "meta_rev_at_epoch": 96113,
        "meta_bstar": 0.0023357835,
        "meta_mean_motion_dot": 5.613e-05,
        "meta_mean_motion_ddot": 0,
        "tle_line1": "1 31151U 99025BHD 25356.47520979  .00005613  00000+0  23358-2 0  9997",
        "tle_line2": "2 31151  99.1351   2.3164 0056327 357.1221   2.9626 14.25906921961135"
      },
      "geometry": {
        "type": "Point",
        "coordinates": [
          13.332520948020024,
          -40.43567433699777
        ]
      }
    },
    {
      "type": "Feature",
      "properties": {
        "norad_id": 31152,
        "name": "FENGYUN 1C DEB",
        "group": "fengyun-1c-debris",
        "lat": 39.225287528081196,
        "lon": 172.72147875568876,
        "alt_km": 844.3932935791881,
        "timestamp": "2025-12-25T11:37:44.716022+00:00",
        "meta_object_name": "FENGYUN 1C DEB",
        "meta_object_id": "1999-025BHE",
        "meta_epoch": "2025-12-24T10:36:14.536224",
        "meta_mean_motion": 14.35857873,
        "meta_eccentricity": 0.01294685,
        "meta_inclination": 98.4153,
        "meta_ra_of_asc_node": 344.7627,
        "meta_arg_of_pericenter": 358.5548,
        "meta_mean_anomaly": 154.0061,
        "meta_ephemeris_type": 0,
        "meta_classification_type": "U",
        "meta_norad_cat_id": 31152,
        "meta_element_set_no": 999,
        "meta_rev_at_epoch": 98216,
        "meta_bstar": 0.00011929315,
        "meta_mean_motion_dot": 3.34e-06,
        "meta_mean_motion_ddot": 0,
        "tle_line1": "1 31152U 99025BHE 25358.44183491  .00000334  00000+0  11929-3 0  9998",
        "tle_line2": "2 31152  98.4153 344.7627 0129468 358.5548 154.0061 14.35857873982169"
      },
      "geometry": {
        "type": "Point",
        "coordinates": [
          172.72147875568876,
          39.225287528081196
        ]
      }
    },
    {
      "type": "Feature",
      "properties": {
        "norad_id": 31155,
        "name": "FENGYUN 1C DEB",
        "group": "fengyun-1c-debris",
        "lat": -46.991219877410515,
        "lon": -121.3876540909087,
        "alt_km": 881.1924658606413,
        "timestamp": "2025-12-25T11:37:44.716032+00:00",
        "meta_object_name": "FENGYUN 1C DEB",
        "meta_object_id": "1999-025BHH",
        "meta_epoch": "2025-12-24T15:47:19.171392",
        "meta_mean_motion": 14.08371508,
        "meta_eccentricity": 0.00887031,
        "meta_inclination": 99.041,
        "meta_ra_of_asc_node": 67.6119,
        "meta_arg_of_pericenter": 329.017,
        "meta_mean_anomaly": 30.5783,
        "meta_ephemeris_type": 0,
        "meta_classification_type": "U",
        "meta_norad_cat_id": 31155,
        "meta_element_set_no": 999,
        "meta_rev_at_epoch": 95755,
        "meta_bstar": 0.0010957238,
        "meta_mean_motion_dot": 1.899e-05,
        "meta_mean_motion_ddot": 0,
        "tle_line1": "1 31155U 99025BHH 25358.65786078  .00001899  00000+0  10957-2 0  9990",
        "tle_line2": "2 31155  99.0410  67.6119 0088703 329.0170  30.5783 14.08371508957552"
      },
      "geometry": {
        "type": "Point",
        "coordinates": [
          -121.3876540909087,
          -46.991219877410515
        ]
      }
    },
    {
      "type": "Feature",
      "properties": {
        "norad_id": 31157,
        "name": "FENGYUN 1C DEB",
        "group": "fengyun-1c-debris",
        "lat": 76.75244908233005,
        "lon": -158.15458042103123,
        "alt_km": 880.4513453831241,
        "timestamp": "2025-12-25T11:37:44.716044+00:00",
        "meta_object_name": "FENGYUN 1C DEB",
        "meta_object_id": "1999-025BHK",
        "meta_epoch": "2025-12-15T04:42:10.430784",
        "meta_mean_motion": 14.22565872,
        "meta_eccentricity": 0.01000722,
        "meta_inclination": 98.4799,
        "meta_ra_of_asc_node": 332.6191,
        "meta_arg_of_pericenter": 319.3006,
        "meta_mean_anomaly": 40.0724,
        "meta_ephemeris_type": 0,
        "meta_classification_type": "U",
        "meta_norad_cat_id": 31157,
        "meta_element_set_no": 999,
        "meta_rev_at_epoch": 97018,
        "meta_bstar": 0.00031840475,
        "meta_mean_motion_dot": 7.06e-06,
        "meta_mean_motion_ddot": 0,
        "tle_line1": "1 31157U 99025BHK 25349.19595406  .00000706  00000+0  31840-3 0  9995",
        "tle_line2": "2 31157  98.4799 332.6191 0100072 319.3006  40.0724 14.22565872970186"
      },
      "geometry": {
        "type": "Point",
        "coordinates": [
          -158.15458042103123,
          76.75244908233005
        ]
      }
    },
    {
      "type": "Feature",
      "properties": {
        "norad_id": 31158,
        "name": "FENGYUN 1C DEB",
        "group": "fengyun-1c-debris",
        "lat": 41.202094537100265,
        "lon": 70.53917011748955,
        "alt_km": 753.6799566123345,
        "timestamp": "2025-12-25T11:37:44.716054+00:00",
        "meta_object_name": "FENGYUN 1C DEB",
        "meta_object_id": "1999-025BHL",
        "meta_epoch": "2025-12-21T11:56:21.493536",
        "meta_mean_motion": 14.33299733,
        "meta_eccentricity": 0.00468097,
        "meta_inclination": 98.7797,
        "meta_ra_of_asc_node": 74.2735,
        "meta_arg_of_pericenter": 8.2217,
        "meta_mean_anomaly": 351.9724,
        "meta_ephemeris_type": 0,
        "meta_classification_type": "U",
        "meta_norad_cat_id": 31158,
        "meta_element_set_no": 999,
        "meta_rev_at_epoch": 64605,
        "meta_bstar": 0.0012542591,
        "meta_mean_motion_dot": 3.451e-05,
        "meta_mean_motion_ddot": 0,
        "tle_line1": "1 31158U 99025BHL 25355.49747099  .00003451  00000+0  12543-2 0  9991",
        "tle_line2": "2 31158  98.7797  74.2735 0046809   8.2217 351.9724 14.33299733646058"
      },
      "geometry": {
        "type": "Point",
        "coordinates": [
          70.53917011748955,
          41.202094537100265
        ]
      }
    },
    {
      "type": "Feature",
      "properties": {
        "norad_id": 31159,
        "name": "FENGYUN 1C DEB",
        "group": "fengyun-1c-debris",
        "lat": -4.5870929420222994,
        "lon": -39.45858125038047,
        "alt_km": 384.9711663023036,
        "timestamp": "2025-12-25T11:37:44.716066+00:00",
        "meta_object_name": "FENGYUN 1C DEB",
        "meta_object_id": "1999-025BHM",
        "meta_epoch": "2025-12-24T15:22:37.463232",
        "meta_mean_motion": 15.39999137,
        "meta_eccentricity": 0.01060224,
        "meta_inclination": 97.8003,
        "meta_ra_of_asc_node": 319.0118,
        "meta_arg_of_pericenter": 331.376,
        "meta_mean_anomaly": 28.1688,
        "meta_ephemeris_type": 0,
        "meta_classification_type": "U",
        "meta_norad_cat_id": 31159,
        "meta_element_set_no": 999,
        "meta_rev_at_epoch": 99736,
        "meta_bstar": 0.0016103955,
        "meta_mean_motion_dot": 0.00078937,
        "meta_mean_motion_ddot": 0,
        "tle_line1": "1 31159U 99025BHM 25358.64071138  .00078937  00000+0  16104-2 0  9994",
        "tle_line2": "2 31159  97.8003 319.0118 0106022 331.3760  28.1688 15.39999137997368"
      },
      "geometry": {
        "type": "Point",
        "coordinates": [
          -39.45858125038047,
          -4.5870929420222994
        ]
      }
    }
  ]
}